{"type": "FeatureCollection", "features": [{"type": "Feature", "properties": {"norad_id": 26766, "name": "INTELSAT 10 (IS-10)", "group": "intelsat", "lat": 8.106902131093639, "lon": 171.53375059014652, "alt_km": 36138.068698849034, "timestamp": "2025-12-16T21:38:56.837447+00:00", "meta": {"OBJECT_NAME": "INTELSAT 10 (IS-10)", "OBJECT_ID": "2001-019A", "EPOCH": "2025-12-15T13:59:19.764960", "MEAN_MOTION": 0.99077622, "ECCENTRICITY": 0.00076924, "INCLINATION": 8.6363, "RA_OF_ASC_NODE": 61.1289, "ARG_OF_PERICENTER": 227.1002, "MEAN_ANOMALY": 132.6392, "EPHEMERIS_TYPE": 0, "CLASSIFICATION_TYPE": "U", "NORAD_CAT_ID": 26766, "ELEMENT_SET_NO": 999, "REV_AT_EPOCH": 4375, "BSTAR": 0, "MEAN_MOTION_DOT": -2.35e-06, "MEAN_MOTION_DDOT": 0}, "tle": {"line1": "1 26766U 01019A   25349.58286765 -.00000235  00000+0  00000+0 0  9997", "line2": "2 26766   8.6363  61.1289 0007692 227.1002 132.6392  0.99077622 43757"}}, "geometry": {"type": "Point", "coordinates": [171.53375059014652, 8.106902131093639]}}, {"type": "Feature", "properties": {"norad_id": 26900, "name": "INTELSAT 902 (IS-902)", "group": "intelsat", "lat": -5.421233519257058, "lon": 0.5372023050069489, "alt_km": 35789.44995241119, "timestamp": "2025-12-16T21:38:56.837473+00:00", "meta": {"OBJECT_NAME": "INTELSAT 902 (IS-902)", "OBJECT_ID": "2001-039A", "EPOCH": "2025-12-15T13:09:02.081664", "MEAN_MOTION": 1.0027087, "ECCENTRICITY": 0.00045028, "INCLINATION": 5.6536, "RA_OF_ASC_NODE": 74.0372, "ARG_OF_PERICENTER": 189.6359, "MEAN_ANOMALY": 327.9329, "EPHEMERIS_TYPE": 0, "CLASSIFICATION_TYPE": "U", "NORAD_CAT_ID": 26900, "ELEMENT_SET_NO": 999, "REV_AT_EPOCH": 8885, "BSTAR": 0, "MEAN_MOTION_DOT": -2.65e-06, "MEAN_MOTION_DDOT": 0}, "tle": {"line1": "1 26900U 01039A   25349.54794076 -.00000265  00000+0  00000+0 0  9997", "line2": "2 26900   5.6536  74.0372 0004502 189.6359 327.9329  1.00270870 88858"}}, "geometry": {"type": "Point", "coordinates": [0.5372023050069489, -5.421233519257058]}}, {"type": "Feature", "properties": {"norad_id": 27380, "name": "INTELSAT 904 (IS-904)", "group": "intelsat", "lat": -5.1038068821633145, "lon": 19.214486612463194, "alt_km": 35784.08690425868, "timestamp": "2025-12-16T21:38:56.837489+00:00", "meta": {"OBJECT_NAME": "INTELSAT 904 (IS-904)", "OBJECT_ID": "2002-007A", "EPOCH": "2025-12-16T02:56:03.383232", "MEAN_MOTION": 1.00272163, "ECCENTRICITY": 0.00016118, "INCLINATION": 6.4628, "RA_OF_ASC_NODE": 71.3939, "ARG_OF_PERICENTER": 240.6691, "MEAN_ANOMALY": 145.4695, "EPHEMERIS_TYPE": 0, "CLASSIFICATION_TYPE": "U", "NORAD_CAT_ID": 27380, "ELEMENT_SET_NO": 999, "REV_AT_EPOCH": 4993, "BSTAR": 0, "MEAN_MOTION_DOT": -2.07e-06, "MEAN_MOTION_DDOT": 0}, "tle": {"line1": "1 27380U 02007A   25350.12226138 -.00000207  00000+0  00000+0 0  9997", "line2": "2 27380   6.4628  71.3939 0001611 240.6691 145.4695  1.00272163 49938"}}, "geometry": {"type": "Point", "coordinates": [19.214486612463194, -5.1038068821633145]}}, {"type": "Feature", "properties": {"norad_id": 27426, "name": "DIRECTV 5 (TEMPO 1)", "group": "intelsat", "lat": -3.015720940297055, "lon": -59.6705646814786, "alt_km": 35772.73913664898, "timestamp": "2025-12-16T21:38:56.837503+00:00", "meta": {"OBJECT_NAME": "DIRECTV 5 (TEMPO 1)", "OBJECT_ID": "2002-023A", "EPOCH": "2025-12-16T08:48:36.812736", "MEAN_MOTION": 1.00272601, "ECCENTRICITY": 0.00033911, "INCLINATION": 4.4111, "RA_OF_ASC_NODE": 77.6111, "ARG_OF_PERICENTER": 203.2015, "MEAN_ANOMALY": 186.4804, "EPHEMERIS_TYPE": 0, "CLASSIFICATION_TYPE": "U", "NORAD_CAT_ID": 27426, "ELEMENT_SET_NO": 999, "REV_AT_EPOCH": 8629, "BSTAR": 0, "MEAN_MOTION_DOT": -3.7e-07, "MEAN_MOTION_DDOT": 0}, "tle": {"line1": "1 27426U 02023A   25350.36709274 -.00000037  00000+0  00000+0 0  9990", "line2": "2 27426   4.4111  77.6111 0003391 203.2015 186.4804  1.00272601 86291"}}, "geometry": {"type": "Point", "coordinates": [-59.6705646814786, -3.015720940297055]}}, {"type": "Feature", "properties": {"norad_id": 27438, "name": "INTELSAT 905 (IS-905)", "group": "intelsat", "lat": -2.312549149631997, "lon": -86.75652891164034, "alt_km": 35774.21668139431, "timestamp": "2025-12-16T21:38:56.837516+00:00", "meta": {"OBJECT_NAME": "INTELSAT 905 (IS-905)", "OBJECT_ID": "2002-027A", "EPOCH": "2025-12-14T04:33:38.635200", "MEAN_MOTION": 1.00274201, "ECCENTRICITY": 0.00026501, "INCLINATION": 6.2894, "RA_OF_ASC_NODE": 72.0398, "ARG_OF_PERICENTER": 202.1249, "MEAN_ANOMALY": 100.1717, "EPHEMERIS_TYPE": 0, "CLASSIFICATION_TYPE": "U", "NORAD_CAT_ID": 27438, "ELEMENT_SET_NO": 999, "REV_AT_EPOCH": 4950, "BSTAR": 0, "MEAN_MOTION_DOT": 1.08e-06, "MEAN_MOTION_DDOT": 0}, "tle": {"line1": "1 27438U 02027A   25348.19003050  .00000108  00000+0  00000+0 0  9992", "line2": "2 27438   6.2894  72.0398 0002650 202.1249 100.1717  1.00274201 49509"}}, "geometry": {"type": "Point", "coordinates": [-86.75652891164034, -2.312549149631997]}}, {"type": "Feature", "properties": {"norad_id": 27445, "name": "GALAXY 3C (G-3C)", "group": "intelsat", "lat": -2.70086419718276, "lon": -44.385191644342726, "alt_km": 35790.64533207186, "timestamp": "2025-12-16T21:38:56.837529+00:00", "meta": {"OBJECT_NAME": "GALAXY 3C (G-3C)", "OBJECT_ID": "2002-030A", "EPOCH": "2025-12-16T08:59:41.263296", "MEAN_MOTION": 1.00271852, "ECCENTRICITY": 0.00011026, "INCLINATION": 3.2729, "RA_OF_ASC_NODE": 80.4714, "ARG_OF_PERICENTER": 79.8305, "MEAN_ANOMALY": 325.0228, "EPHEMERIS_TYPE": 0, "CLASSIFICATION_TYPE": "U", "NORAD_CAT_ID": 27445, "ELEMENT_SET_NO": 999, "REV_AT_EPOCH": 4466, "BSTAR": 0, "MEAN_MOTION_DOT": -1.31e-06, "MEAN_MOTION_DDOT": 0}, "tle": {"line1": "1 27445U 02030A   25350.37478314 -.00000131  00000+0  00000+0 0  9993", "line2": "2 27445   3.2729  80.4714 0001102  79.8305 325.0228  1.00271852 44665"}}, "geometry": {"type": "Point", "coordinates": [-44.385191644342726, -2.70086419718276]}}, {"type": "Feature", "properties": {"norad_id": 27513, "name": "INTELSAT 906 (IS-906)", "group": "intelsat", "lat": 3.409290592094558, "lon": 114.4911899398946, "alt_km": 35809.76363988916, "timestamp": "2025-12-16T21:38:56.837542+00:00", "meta": {"OBJECT_NAME": "INTELSAT 906 (IS-906)", "OBJECT_ID": "2002-041A", "EPOCH": "2025-12-16T05:06:10.289376", "MEAN_MOTION": 1.00272129, "ECCENTRICITY": 0.00062686, "INCLINATION": 5.338, "RA_OF_ASC_NODE": 75.1901, "ARG_OF_PERICENTER": 195.5054, "MEAN_ANOMALY": 315.0788, "EPHEMERIS_TYPE": 0, "CLASSIFICATION_TYPE": "U", "NORAD_CAT_ID": 27513, "ELEMENT_SET_NO": 999, "REV_AT_EPOCH": 8519, "BSTAR": 0, "MEAN_MOTION_DOT": 3.2e-07, "MEAN_MOTION_DDOT": 0}, "tle": {"line1": "1 27513U 02041A   25350.21261909  .00000032  00000+0  00000+0 0  9993", "line2": "2 27513   5.3380  75.1901 0006268 195.5054 315.0788  1.00272129 85192"}}, "geometry": {"type": "Point", "coordinates": [114.4911899398946, 3.409290592094558]}}, {"type": "Feature", "properties": {"norad_id": 27954, "name": "GALAXY 13 (HORIZONS-1)", "group": "intelsat", "lat": 0.0720489253554459, "lon": -99.48335742012604, "alt_km": 35776.8011734235, "timestamp": "2025-12-16T21:38:56.837554+00:00", "meta": {"OBJECT_NAME": "GALAXY 13 (HORIZONS-1)", "OBJECT_ID": "2003-044A", "EPOCH": "2025-12-16T08:19:37.782048", "MEAN_MOTION": 1.00273155, "ECCENTRICITY": 0.00020822, "INCLINATION": 0.9453, "RA_OF_ASC_NODE": 86.4238, "ARG_OF_PERICENTER": 174.905, "MEAN_ANOMALY": 158.8181, "EPHEMERIS_TYPE": 0, "CLASSIFICATION_TYPE": "U", "NORAD_CAT_ID": 27954, "ELEMENT_SET_NO": 999, "REV_AT_EPOCH": 4473, "BSTAR": 0, "MEAN_MOTION_DOT": 1.55e-06, "MEAN_MOTION_DDOT": 0}, "tle": {"line1": "1 27954U 03044A   25350.34696507  .00000155  00000+0  00000+0 0  9992", "line2": "2 27954   0.9453  86.4238 0002082 174.9050 158.8181  1.00273155 44733"}}, "geometry": {"type": "Point", "coordinates": [-99.48335742012604, 0.0720489253554459]}}, {"type": "Feature", "properties": {"norad_id": 28358, "name": "INTELSAT 10-02", "group": "intelsat", "lat": 0.01036321731381713, "lon": 49.56364730773139, "alt_km": 35787.001385589865, "timestamp": "2025-12-16T21:38:56.837566+00:00", "meta": {"OBJECT_NAME": "INTELSAT 10-02", "OBJECT_ID": "2004-022A", "EPOCH": "2025-12-15T23:39:22.220640", "MEAN_MOTION": 1.00272487, "ECCENTRICITY": 0.00010055, "INCLINATION": 0.0253, "RA_OF_ASC_NODE": 71.0681, "ARG_OF_PERICENTER": 232.9389, "MEAN_ANOMALY": 134.7573, "EPHEMERIS_TYPE": 0, "CLASSIFICATION_TYPE": "U", "NORAD_CAT_ID": 28358, "ELEMENT_SET_NO": 999, "REV_AT_EPOCH": 7871, "BSTAR": 0, "MEAN_MOTION_DOT": 1.2e-07, "MEAN_MOTION_DDOT": 0}, "tle": {"line1": "1 28358U 04022A   25349.98567385  .00000012  00000+0  00000+0 0  9999", "line2": "2 28358   0.0253  71.0681 0001005 232.9389 134.7573  1.00272487 78717"}}, "geometry": {"type": "Point", "coordinates": [49.56364730773139, 0.01036321731381713]}}, {"type": "Feature", "properties": {"norad_id": 28626, "name": "XM-3 (RHYTHM)", "group": "intelsat", "lat": 0.1704974185675806, "lon": 145.06125615724392, "alt_km": 36166.691878636804, "timestamp": "2025-12-16T21:38:56.837579+00:00", "meta": {"OBJECT_NAME": "XM-3 (RHYTHM)", "OBJECT_ID": "2005-008A", "EPOCH": "2025-12-16T06:58:07.066848", "MEAN_MOTION": 0.98951007, "ECCENTRICITY": 0.00017474, "INCLINATION": 0.1837, "RA_OF_ASC_NODE": 81.8073, "ARG_OF_PERICENTER": 276.3572, "MEAN_ANOMALY": 288.9964, "EPHEMERIS_TYPE": 0, "CLASSIFICATION_TYPE": "U", "NORAD_CAT_ID": 28626, "ELEMENT_SET_NO": 999, "REV_AT_EPOCH": 4078, "BSTAR": 0, "MEAN_MOTION_DOT": -2.9e-07, "MEAN_MOTION_DDOT": 0}, "tle": {"line1": "1 28626U 05008A   25350.29035957 -.00000029  00000+0  00000+0 0  9992", "line2": "2 28626   0.1837  81.8073 0001747 276.3572 288.9964  0.98951007 40787"}}, "geometry": {"type": "Point", "coordinates": [145.06125615724392, 0.1704974185675806]}}]}